ORBCOMM FM103           
1 40091U 14040F   25067.45557280  .00001150  00000+0  28511-3 0  9995
2 40091  47.0049 133.4407 0002209 211.3189 148.7565 14.57886386566469
ORBCOMM FM114           
1 41179U 15081A   25066.93230636  .00001279  00000+0  31280-3 0  9993
2 41179  47.0034  45.0188 0002810 262.0236  98.0331 14.57938734489691
ORBCOMM FM119           
1 41180U 15081B   25066.77813490  .00001123  00000+0  27950-3 0  9999
2 41180  47.0015 315.0247 0001473 304.7581  55.3165 14.57861734490923
ORBCOMM FM105           
1 41181U 15081C   25066.93665493  .00000520  00000+0  19209-3 0  9994
2 41181  47.0021 309.4264 0001948 237.3911 122.6781 14.45072511486103
ORBCOMM FM110           
1 41182U 15081D   25067.25067366  .00001321  00000+0  32191-3 0  9991
2 41182  47.0028  42.8844 0002101  12.7279 347.3659 14.57927558489798
ORBCOMM FM118           
1 41183U 15081E   25066.61812480  .00001464  00000+0  35336-3 0  9998
2 41183  47.0052  46.3149 0002589   8.4809 351.6120 14.57852930489628
ORBCOMM FM112           
1 41184U 15081F   25066.75456241  .00001535  00000+0  36820-3 0  9991
2 41184  46.9998 314.3008 0001218 276.7150  83.3596 14.57885307490863
ORBCOMM FM113           
1 41185U 15081G   25066.73145797  .00001523  00000+0  36584-3 0  9995
2 41185  47.0016 314.7203 0001251 291.0136  69.0616 14.57872739490846
